[
  {
    "COMMENT": "GENERATED VIA SPACETRACK.ORG API",
    "ORIGINATOR": "18 SPCS",
    "NORAD_CAT_ID": "48621",
    "OBJECT_NAME": "HAIYANG 2D",
    "OBJECT_TYPE": "PAYLOAD",
    "CLASSIFICATION_TYPE": "U",
    "INTLDES": "21043A",
    "EPOCH": "2021-06-30 13:44:50",
    "EPOCH_MICROSECONDS": "634528",
    "MEAN_MOTION": "13.83373175",
    "ECCENTRICITY": "0.0009133",
    "INCLINATION": "65.9973",
    "RA_OF_ASC_NODE": "137.4791",
    "ARG_OF_PERICENTER": "254.3063",
    "MEAN_ANOMALY": "105.699",
    "EPHEMERIS_TYPE": "0",
    "ELEMENT_SET_NO": "999",
    "REV_AT_EPOCH": "586",
    "BSTAR": "0.0000044309",
    "MEAN_MOTION_DOT": "-0.00000076",
    "MEAN_MOTION_DDOT": "0",
    "FILE": "3067136",
    "TLE_LINE0": "0 HAIYANG 2D",
    "TLE_LINE1": "1 48621U 21043A   21181.57280827 -.00000076  00000-0  44309-5 0  9992",
    "TLE_LINE2": "2 48621  65.9973 137.4791 0009133 254.3063 105.6990 13.83373175  5863",
    "OBJECT_ID": "2021-043A",
    "OBJECT_NUMBER": "48621",
    "SEMIMAJOR_AXIS": "7330.084",
    "PERIOD": "104.093",
    "APOGEE": "958.643",
    "PERIGEE": "945.254",
    "DECAYED": "0"
  },
  {
    "COMMENT": "GENERATED VIA SPACETRACK.ORG API",
    "ORIGINATOR": "18 SPCS",
    "NORAD_CAT_ID": "48621",
    "OBJECT_NAME": "HAIYANG 2D",
    "OBJECT_TYPE": "PAYLOAD",
    "CLASSIFICATION_TYPE": "U",
    "INTLDES": "21043A",
    "EPOCH": "2021-07-01 09:32:15",
    "EPOCH_MICROSECONDS": "357408",
    "MEAN_MOTION": "13.83373708",
    "ECCENTRICITY": "0.0009092",
    "INCLINATION": "65.9971",
    "RA_OF_ASC_NODE": "135.4265",
    "ARG_OF_PERICENTER": "254.1152",
    "MEAN_ANOMALY": "252.037",
    "EPHEMERIS_TYPE": "0",
    "ELEMENT_SET_NO": "999",
    "REV_AT_EPOCH": "597",
    "BSTAR": "0.00011272",
    "MEAN_MOTION_DOT": "0.00000043",
    "MEAN_MOTION_DDOT": "0",
    "FILE": "3067631",
    "TLE_LINE0": "0 HAIYANG 2D",
    "TLE_LINE1": "1 48621U 21043A   21182.39739997  .00000043  00000-0  11272-3 0  9994",
    "TLE_LINE2": "2 48621  65.9971 135.4265 0009092 254.1152 252.0370 13.83373708  5979",
    "OBJECT_ID": "2021-043A",
    "OBJECT_NUMBER": "48621",
    "SEMIMAJOR_AXIS": "7330.082",
    "PERIOD": "104.093",
    "APOGEE": "958.611",
    "PERIGEE": "945.282",
    "DECAYED": "0"
  },
  {
    "COMMENT": "GENERATED VIA SPACETRACK.ORG API",
    "ORIGINATOR": "18 SPCS",
    "NORAD_CAT_ID": "48621",
    "OBJECT_NAME": "HAIYANG 2D",
    "OBJECT_TYPE": "PAYLOAD",
    "CLASSIFICATION_TYPE": "U",
    "INTLDES": "21043A",
    "EPOCH": "2021-07-01 14:02:18",
    "EPOCH_MICROSECONDS": "431520",
    "MEAN_MOTION": "13.8337424",
    "ECCENTRICITY": "0.0009114",
    "INCLINATION": "65.997",
    "RA_OF_ASC_NODE": "134.9597",
    "ARG_OF_PERICENTER": "253.8805",
    "MEAN_ANOMALY": "106.1276",
    "EPHEMERIS_TYPE": "0",
    "ELEMENT_SET_NO": "999",
    "REV_AT_EPOCH": "600",
    "BSTAR": "0.00023026",
    "MEAN_MOTION_DOT": "0.00000172",
    "MEAN_MOTION_DDOT": "0",
    "FILE": "3067855",
    "TLE_LINE0": "0 HAIYANG 2D",
    "TLE_LINE1": "1 48621U 21043A   21182.58493555  .00000172  00000-0  23026-3 0  9995",
    "TLE_LINE2": "2 48621  65.9970 134.9597 0009114 253.8805 106.1276 13.83374240  6007",
    "OBJECT_ID": "2021-043A",
    "OBJECT_NUMBER": "48621",
    "SEMIMAJOR_AXIS": "7330.080",
    "PERIOD": "104.093",
    "APOGEE": "958.626",
    "PERIGEE": "945.264",
    "DECAYED": "0"
  },
  {
    "COMMENT": "GENERATED VIA SPACETRACK.ORG API",
    "ORIGINATOR": "18 SPCS",
    "NORAD_CAT_ID": "48621",
    "OBJECT_NAME": "HAIYANG 2D",
    "OBJECT_TYPE": "PAYLOAD",
    "CLASSIFICATION_TYPE": "U",
    "INTLDES": "21043A",
    "EPOCH": "2021-07-01 22:42:49",
    "EPOCH_MICROSECONDS": "738464",
    "MEAN_MOTION": "13.83374005",
    "ECCENTRICITY": "0.0009115",
    "INCLINATION": "65.9969",
    "RA_OF_ASC_NODE": "134.0598",
    "ARG_OF_PERICENTER": "253.7724",
    "MEAN_ANOMALY": "106.2323",
    "EPHEMERIS_TYPE": "0",
    "ELEMENT_SET_NO": "999",
    "REV_AT_EPOCH": "605",
    "BSTAR": "0.0001648",
    "MEAN_MOTION_DOT": "0.000001",
    "MEAN_MOTION_DDOT": "0",
    "FILE": "3067872",
    "TLE_LINE0": "0 HAIYANG 2D",
    "TLE_LINE1": "1 48621U 21043A   21182.94640901  .00000100  00000-0  16480-3 0  9991",
    "TLE_LINE2": "2 48621  65.9969 134.0598 0009115 253.7724 106.2323 13.83374005  6055",
    "OBJECT_ID": "2021-043A",
    "OBJECT_NUMBER": "48621",
    "SEMIMAJOR_AXIS": "7330.081",
    "PERIOD": "104.093",
    "APOGEE": "958.627",
    "PERIGEE": "945.265",
    "DECAYED": "0"
  },
  {
    "COMMENT": "GENERATED VIA SPACETRACK.ORG API",
    "ORIGINATOR": "18 SPCS",
    "NORAD_CAT_ID": "48621",
    "OBJECT_NAME": "HAIYANG 2D",
    "OBJECT_TYPE": "PAYLOAD",
    "CLASSIFICATION_TYPE": "U",
    "INTLDES": "21043A",
    "EPOCH": "2021-07-02 02:11:02",
    "EPOCH_MICROSECONDS": "306688",
    "MEAN_MOTION": "13.83373309",
    "ECCENTRICITY": "0.0009127",
    "INCLINATION": "65.9969",
    "RA_OF_ASC_NODE": "133.7",
    "ARG_OF_PERICENTER": "253.5103",
    "MEAN_ANOMALY": "106.4934",
    "EPHEMERIS_TYPE": "0",
    "ELEMENT_SET_NO": "999",
    "REV_AT_EPOCH": "607",
    "BSTAR": "0.000040654",
    "MEAN_MOTION_DOT": "-0.00000036",
    "MEAN_MOTION_DDOT": "0",
    "FILE": "3068251",
    "TLE_LINE0": "0 HAIYANG 2D",
    "TLE_LINE1": "1 48621U 21043A   21183.09099892 -.00000036  00000-0  40654-4 0  9995",
    "TLE_LINE2": "2 48621  65.9969 133.7000 0009127 253.5103 106.4934 13.83373309  6079",
    "OBJECT_ID": "2021-043A",
    "OBJECT_NUMBER": "48621",
    "SEMIMAJOR_AXIS": "7330.083",
    "PERIOD": "104.093",
    "APOGEE": "958.639",
    "PERIGEE": "945.258",
    "DECAYED": "0"
  },
  {
    "COMMENT": "GENERATED VIA SPACETRACK.ORG API",
    "ORIGINATOR": "18 SPCS",
    "NORAD_CAT_ID": "48621",
    "OBJECT_NAME": "HAIYANG 2D",
    "OBJECT_TYPE": "PAYLOAD",
    "CLASSIFICATION_TYPE": "U",
    "INTLDES": "21043A",
    "EPOCH": "2021-07-02 10:51:33",
    "EPOCH_MICROSECONDS": "703488",
    "MEAN_MOTION": "13.83373383",
    "ECCENTRICITY": "0.0009123",
    "INCLINATION": "65.997",
    "RA_OF_ASC_NODE": "132.8003",
    "ARG_OF_PERICENTER": "253.4332",
    "MEAN_ANOMALY": "106.5734",
    "EPHEMERIS_TYPE": "0",
    "ELEMENT_SET_NO": "999",
    "REV_AT_EPOCH": "612",
    "BSTAR": "0.000027648",
    "MEAN_MOTION_DOT": "-0.00000051",
    "MEAN_MOTION_DDOT": "0",
    "FILE": "3068543",
    "TLE_LINE0": "0 HAIYANG 2D",
    "TLE_LINE1": "1 48621U 21043A   21183.45247342 -.00000051  00000-0  27648-4 0  9995",
    "TLE_LINE2": "2 48621  65.9970 132.8003 0009123 253.4332 106.5734 13.83373383  6120",
    "OBJECT_ID": "2021-043A",
    "OBJECT_NUMBER": "48621",
    "SEMIMAJOR_AXIS": "7330.083",
    "PERIOD": "104.093",
    "APOGEE": "958.635",
    "PERIGEE": "945.261",
    "DECAYED": "0"
  },
  {
    "COMMENT": "GENERATED VIA SPACETRACK.ORG API",
    "ORIGINATOR": "18 SPCS",
    "NORAD_CAT_ID": "48621",
    "OBJECT_NAME": "HAIYANG 2D",
    "OBJECT_TYPE": "PAYLOAD",
    "CLASSIFICATION_TYPE": "U",
    "INTLDES": "21043A",
    "EPOCH": "2021-07-02 10:51:33",
    "EPOCH_MICROSECONDS": "703488",
    "MEAN_MOTION": "13.83373383",
    "ECCENTRICITY": "0.0009123",
    "INCLINATION": "65.997",
    "RA_OF_ASC_NODE": "132.8003",
    "ARG_OF_PERICENTER": "253.4332",
    "MEAN_ANOMALY": "106.5734",
    "EPHEMERIS_TYPE": "0",
    "ELEMENT_SET_NO": "999",
    "REV_AT_EPOCH": "612",
    "BSTAR": "0.000027648",
    "MEAN_MOTION_DOT": "-0.00000051",
    "MEAN_MOTION_DDOT": "0",
    "FILE": "3068555",
    "TLE_LINE0": "0 HAIYANG 2D",
    "TLE_LINE1": "1 48621U 21043A   21183.45247342 -.00000051  00000-0  27648-4 0  9995",
    "TLE_LINE2": "2 48621  65.9970 132.8003 0009123 253.4332 106.5734 13.83373383  6120",
    "OBJECT_ID": "2021-043A",
    "OBJECT_NUMBER": "48621",
    "SEMIMAJOR_AXIS": "7330.083",
    "PERIOD": "104.093",
    "APOGEE": "958.635",
    "PERIGEE": "945.261",
    "DECAYED": "0"
  },
  {
    "COMMENT": "GENERATED VIA SPACETRACK.ORG API",
    "ORIGINATOR": "18 SPCS",
    "NORAD_CAT_ID": "48621",
    "OBJECT_NAME": "HAIYANG 2D",
    "OBJECT_TYPE": "PAYLOAD",
    "CLASSIFICATION_TYPE": "U",
    "INTLDES": "21043A",
    "EPOCH": "2021-07-02 19:32:05",
    "EPOCH_MICROSECONDS": "57088",
    "MEAN_MOTION": "13.83373775",
    "ECCENTRICITY": "0.0009114",
    "INCLINATION": "65.9971",
    "RA_OF_ASC_NODE": "131.9009",
    "ARG_OF_PERICENTER": "253.5436",
    "MEAN_ANOMALY": "106.4645",
    "EPHEMERIS_TYPE": "0",
    "ELEMENT_SET_NO": "999",
    "REV_AT_EPOCH": "617",
    "BSTAR": "0.000076457",
    "MEAN_MOTION_DOT": "0.00000003",
    "MEAN_MOTION_DDOT": "0",
    "FILE": "3068809",
    "TLE_LINE0": "0 HAIYANG 2D",
    "TLE_LINE1": "1 48621U 21043A   21183.81394742  .00000003  00000-0  76457-4 0  9990",
    "TLE_LINE2": "2 48621  65.9971 131.9009 0009114 253.5436 106.4645 13.83373775  6173",
    "OBJECT_ID": "2021-043A",
    "OBJECT_NUMBER": "48621",
    "SEMIMAJOR_AXIS": "7330.082",
    "PERIOD": "104.093",
    "APOGEE": "958.627",
    "PERIGEE": "945.266",
    "DECAYED": "0"
  },
  {
    "COMMENT": "GENERATED VIA SPACETRACK.ORG API",
    "ORIGINATOR": "18 SPCS",
    "NORAD_CAT_ID": "48621",
    "OBJECT_NAME": "HAIYANG 2D",
    "OBJECT_TYPE": "PAYLOAD",
    "CLASSIFICATION_TYPE": "U",
    "INTLDES": "21043A",
    "EPOCH": "2021-07-02 19:32:05",
    "EPOCH_MICROSECONDS": "57088",
    "MEAN_MOTION": "13.83373775",
    "ECCENTRICITY": "0.0009114",
    "INCLINATION": "65.9971",
    "RA_OF_ASC_NODE": "131.9009",
    "ARG_OF_PERICENTER": "253.5436",
    "MEAN_ANOMALY": "106.4645",
    "EPHEMERIS_TYPE": "0",
    "ELEMENT_SET_NO": "999",
    "REV_AT_EPOCH": "617",
    "BSTAR": "0.000076457",
    "MEAN_MOTION_DOT": "0.00000003",
    "MEAN_MOTION_DDOT": "0",
    "FILE": "3068825",
    "TLE_LINE0": "0 HAIYANG 2D",
    "TLE_LINE1": "1 48621U 21043A   21183.81394742  .00000003  00000-0  76457-4 0  9990",
    "TLE_LINE2": "2 48621  65.9971 131.9009 0009114 253.5436 106.4645 13.83373775  6173",
    "OBJECT_ID": "2021-043A",
    "OBJECT_NUMBER": "48621",
    "SEMIMAJOR_AXIS": "7330.082",
    "PERIOD": "104.093",
    "APOGEE": "958.627",
    "PERIGEE": "945.266",
    "DECAYED": "0"
  }
]